KUIPER-00053            
1 64513U 25134P   25223.82238336  .00028611  00000+0  78698-3 0  9991
2 64513  51.8774  92.6125 0001511 265.3351  94.7463 15.36958725  8373
KUIPER-00054            
1 64514U 25134Q   25223.37378885  .00029339  00000+0  81273-3 0  9997
2 64514  51.8755  94.8523 0002752 270.2646  89.8025 15.36723904  8760
KUIPER-00055            
1 64515U 25134R   25223.87316647  .00032252  00000+0  87358-3 0  9999
2 64515  51.8763  92.2076 0000863 207.2405 152.8536 15.37374833  8693
KUIPER-00056            
1 64516U 25134S   25223.83633282  .00031923  00000+0  88951-3 0  9997
2 64516  51.8742  92.6956 0002601 274.2109  85.8580 15.36497835  8375
KUIPER-00057            
1 64517U 25134T   25223.86746796  .00048286  00000+0  14133-2 0  9996
2 64517  51.8691  92.8842 0006448 269.5636  90.4610 15.34747656  8485
KUIPER-00058            
1 64518U 25134U   25223.84686604  .00029283  00000+0  82411-3 0  9997
2 64518  51.8708  92.7565 0005071 284.3405  75.7018 15.36224967  8379
KUIPER-00059            
1 64519U 25134V   25223.35579095  .00033970  00000+0  92179-3 0  9999
2 64519  51.8769  94.7357 0001078 204.9016 155.1919 15.37293260  8766
KUIPER-00060            
1 64520U 25134W   25223.88242619  .00030446  00000+0  83126-3 0  9995
2 64520  51.8770  92.2678 0002087 231.3212 128.7588 15.37156222  8384
